CCSDS_OMM_VERS,COMMENT,CREATION_DATE,ORIGINATOR,OBJECT_NAME,OBJECT_ID,CENTER_NAME,REF_FRAME,TIME_SYSTEM,MEAN_ELEMENT_THEORY,EPOCH,MEAN_MOTION,ECCENTRICITY,INCLINATION,RA_OF_ASC_NODE,ARG_OF_PERICENTER,MEAN_ANOMALY,EPHEMERIS_TYPE,CLASSIFICATION_TYPE,NORAD_CAT_ID,ELEMENT_SET_NO,REV_AT_EPOCH,BSTAR,MEAN_MOTION_DOT,MEAN_MOTION_DDOT,SEMIMAJOR_AXIS,PERIOD,APOAPSIS,PERIAPSIS,OBJECT_TYPE,RCS_SIZE,COUNTRY_CODE,LAUNCH_DATE,SITE,DECAY_DATE,FILE,GP_ID,TLE_LINE0,TLE_LINE1,TLE_LINE2
3.0,GENERATED VIA SPACE-TRACK.ORG API,2014-06-19T00:51:56,18 SPCS,DELTA 4 DEB,2014-026K,EARTH,TEME,UTC,SGP4,2014-06-08T03:21:16.659359,6.4837447,0.4611419,52.5422,117.4357,92.4034,347.6964,0,U,40003,999,19,0.064127,0.12283685,2.8243e-07,12148.374,222.093,11372.364,168.115,DEBRIS,,,,,2014-06-11,1700377,96228253,0 DELTA 4 DEB,1 40003U 14026K   14159.13977615  .12283685  28243-6  64127-1 0  9990,2 40003 052.5422 117.4357 4611419 092.4034 347.6964 06.48374470   197
3.0,GENERATED VIA SPACE-TRACK.ORG API,2004-08-15T23:42:05,18 SPCS,SL-8 R/B,1971-105B,EARTH,TEME,UTC,SGP4,1979-04-29T02:45:15.203520,16.45261885,0.0006608,69.1974,24.2076,226.4526,133.8254,0,U,5644,999,41560,0.0,0.1310375,0.0,6529.983,87.524,156.163,147.533,ROCKET BODY,LARGE,CIS,1971-12-02,PKMTR,1979-04-29,34040,10804130,0 SL-8 R/B,1 05644U 71105  B 79119.11475930  .13103750 +00000-0 +00000-0 0  9990,2 05644 069.1974 024.2076 0006608 226.4526 133.8254 16.45261885415603
3.0,GENERATED VIA SPACE-TRACK.ORG API,2011-04-14T10:17:25,18 SPCS,COSMOS 2251 DEB,1993-036NB,EARTH,TEME,UTC,SGP4,2011-04-14T11:31:00.328224,15.60410275,0.0023067,74.0272,286.8248,306.8755,53.0593,0,U,34305,999,11517,0.060984,0.050805,0.0,6764.612,92.283,402.081,370.873,DEBRIS,SMALL,CIS,1993-06-16,PKMTR,2011-04-18,1071982,82640581,0 COSMOS 2251 DEB,1 34305U 93036NB  11104.47986491  .05080500  00000-0  60984-1 0  9997,2 34305 074.0272 286.8248 0023067 306.8755 053.0593 15.60410275115170
3.0,GENERATED VIA SPACE-TRACK.ORG API,2004-08-16T23:15:26,18 SPCS,THORAD AGENA D DEB,1969-082GQ,EARTH,TEME,UTC,SGP4,1981-05-28T14:02:09.529727,15.13000983,0.0047683,69.9617,212.5121,249.6033,110.0009,0,U,4549,999,60564,0.02778,0.00505468,0.0,6905.195,95.175,559.986,494.134,DEBRIS,SMALL,US,1969-09-30,AFWTR,1981-08-19,34335,12324307,0 THORAD AGENA D DEB,1 04549U 69082 GQ 81148.58483252  .00505468 +00000-0 +27780-1 0  9999,2 04549 069.9617 212.5121 0047683 249.6033 110.0009 15.13000983605643
3.0,GENERATED VIA SPACE-TRACK.ORG API,2004-05-30T15:46:44,18 SPCS,PSLV DEB,2001-049NC,EARTH,TEME,UTC,SGP4,2004-03-12T19:29:24.978623,15.87001885,0.0009488,97.683,182.2084,57.3741,315.779,0,U,27584,999,9689,0.0016397,0.00442858,0.0,6688.835,90.737,317.046,304.353,DEBRIS,SMALL,IND,2001-10-22,SRI,2004-03-22,7924,7458000,0 PSLV DEB,1 27584U 01049NC  04072.81209466 +.00442858 +00000-0 +16397-2 0  9998,2 27584 097.6830 182.2084 0009488 057.3741 315.7790 15.87001885096899
3.0,GENERATED VIA SPACE-TRACK.ORG API,2011-04-14T14:22:01,18 SPCS,SL-16 DEB,1992-093GQ,EARTH,TEME,UTC,SGP4,2011-04-14T16:33:30.831551,16.02071135,0.0014758,70.7119,311.7066,243.6818,116.0543,0,U,22505,999,95860,0.027167,0.09707964,0.32095,6646.825,89.883,278.499,258.88,DEBRIS,SMALL,CIS,1992-12-25,TTMTR,2011-04-14,1072089,82642003,0 SL-16 DEB,1 22505U 92093GQ  11104.68994018  .09707964  32095+0  27167-1 0  9993,2 22505 070.7119 311.7066 0014758 243.6818 116.0543 16.02071135958606
3.0,GENERATED VIA SPACE-TRACK.ORG API,2005-05-02T23:40:10,18 SPCS,SL-6 DEB *,1982-115AH,EARTH,TEME,UTC,SGP4,1989-01-06T20:49:34.056191,16.28219648,0.003958,62.7964,81.1853,123.9644,242.9509,0,U,19666,999,1349,0.0005865,0.02868595,3.77e-05,6575.469,88.44,223.36,171.309,DEBRIS,,,,,1989-01-08,131042,44068372,0 SL-6 DEB *,1 19666U 82115 AH 89006.86775528  .02868595 +37700-4 +58650-3 0  9997,2 19666 062.7964 081.1853 0039580 123.9644 242.9509 16.28219648013499
3.0,GENERATED VIA SPACE-TRACK.ORG API,2004-05-27T14:47:27,18 SPCS,ISS DEB,1998-067L,EARTH,TEME,UTC,SGP4,2001-10-25T14:33:24.785568,15.92704074,0.0029174,51.5717,152.1427,10.7169,73.1338,0,U,26951,999,151,0.010896,0.03396325,0.012887,6672.86,90.412,314.193,275.258,DEBRIS,SMALL,ISS,1998-11-20,TTMTR,2001-10-26,6305,1356521,0 ISS DEB,1 26951U 98067L   01298.60653687 +.03396325 +12887-1 +10896-1 0  9997,2 26951 051.5717 152.1427 0029174 010.7169 073.1338 15.92704074001511
3.0,GENERATED VIA SPACE-TRACK.ORG API,2022-01-31T23:26:11,18 SPCS,COSMOS 1408 DEB,1982-092PB,EARTH,TEME,UTC,SGP4,2022-01-31T12:25:33.832416,16.1474177,0.0016542,82.4037,42.2273,213.3121,146.7125,0,U,49916,999,1139,0.010081,0.1319345,-1.1963e-06,6612.004,89.178,244.807,222.932,DEBRIS,SMALL,CIS,1982-09-16,PKMTR,2022-02-04,3288652,195028458,0 COSMOS 1408 DEB,1 49916U 82092PB  22031.51775269  .13193450 -11963-5  10081-1 0  9993,2 49916  82.4037  42.2273 0016542 213.3121 146.7125 16.14741770 11394
3.0,GENERATED VIA SPACE-TRACK.ORG API,2004-08-16T23:18:11,18 SPCS,COSMOS 1568 DEB,1984-054H,EARTH,TEME,UTC,SGP4,1984-06-15T18:53:22.584479,15.59474552,0.0070763,72.6186,68.3575,301.0156,56.461,0,U,15044,999,223,0.0012941,0.00115936,0.0,6767.318,92.338,437.07,341.295,DEBRIS,,,,,1984-06-16,34390,13968076,0 COSMOS 1568 DEB,1 15044U 84054  H 84167.78706695  .00115936 +00000-0 +12941-2 0  9993,2 15044 072.6186 068.3575 0070763 301.0156 056.4610 15.59474552002235
3.0,GENERATED VIA SPACE-TRACK.ORG API,2004-08-15T23:37:47,18 SPCS,COSMOS 364,1970-075A,EARTH,TEME,UTC,SGP4,1970-10-01T11:34:53.827679,16.09111603,0.008109,65.4336,142.3308,51.7015,309.1367,0,U,4553,999,144,0.0,0.00177095,0.0,6627.422,89.49,303.029,195.545,PAYLOAD,,,,,1970-10-02,33954,8900827,0 COSMOS 364,1 04553U 70075  A 70274.48256745  .00177095 +00000-0 +00000-0 0  9996,2 04553 065.4336 142.3308 0081090 051.7015 309.1367 16.09111603001440
3.0,GENERATED VIA SPACE-TRACK.ORG API,2022-12-15T02:46:14,18 SPCS,COSMOS 1408 DEB,1982-092BN,EARTH,TEME,UTC,SGP4,2022-12-14T14:50:22.903296,16.4003199,0.000824,82.5328,72.932,256.8577,103.1803,0,U,49573,999,6092,0.00080729,0.10075865,-1.2377e-06,6543.854,87.803,171.112,160.327,DEBRIS,SMALL,CIS,1982-09-16,PKMTR,2022-12-22,3699719,220414803,0 COSMOS 1408 DEB,1 49573U 82092BN  22348.61832064  .10075865 -12377-5  80729-3 0  9995,2 49573  82.5328  72.9320 0008240 256.8577 103.1803 16.40031990 60921
3.0,GENERATED VIA SPACE-TRACK.ORG API,2004-08-15T23:35:29,18 SPCS,SPUTNIK 22 DEB,1962-057F,EARTH,TEME,UTC,SGP4,1962-12-07T03:07:44.658335,16.18751374,0.0062297,64.726,189.5494,321.8554,189.7254,0,U,460,999,655,0.0,0.02898551,0.0,6601.085,88.957,264.073,181.827,DEBRIS,,,,,1962-12-08,33908,8678411,0 SPUTNIK 22 DEB,1 00460U 62057  F 62341.13037799  .02898551 +00000-0 +00000-0 0  9993,2 00460 064.7260 189.5494 0062297 321.8554 189.7254 16.18751374006556
3.0,GENERATED VIA SPACE-TRACK.ORG API,2004-08-15T23:44:02,18 SPCS,SL-4 R/B,1979-041B,EARTH,TEME,UTC,SGP4,1979-05-20T16:17:43.082303,16.40875435,0.0,81.3584,1.8005,358.1995,6.3314,0,U,11361,999,55,0.0,0.08484793,0.0,6541.615,87.758,163.48,163.48,ROCKET BODY,,,,,1979-05-21,34079,11016226,0 SL-4 R/B,1 11361U 79041  B 79140.67897086  .08484793 +00000-0 +00000-0 0  9998,2 11361 081.3584 001.8005 0000000 358.1995 006.3314 16.40875435000557
3.0,GENERATED VIA SPACE-TRACK.ORG API,2022-06-25T01:06:18,18 SPCS,FENGYUN 1C DEB,1999-025DYS,EARTH,TEME,UTC,SGP4,2022-05-05T09:52:57.844704,15.27155257,0.0017843,98.9692,347.5177,94.4912,265.8361,0,U,36672,999,71257,0.014597,0.00411799,0.0,6862.458,94.293,496.568,472.079,DEBRIS,SMALL,PRC,1999-05-10,TSC,2022-06-15,3501785,206765917,0 FENGYUN 1C DEB,1 36672U 99025DYS 22125.41178061  .00411799  00000-0  14597-1 0  9997,2 36672  98.9692 347.5177 0017843  94.4912 265.8361 15.27155257712578
3.0,GENERATED VIA SPACE-TRACK.ORG API,2004-08-15T23:47:17,18 SPCS,DELTA 1 DEB,1977-065EA,EARTH,TEME,UTC,SGP4,1980-08-25T07:12:54.599615,15.03382874,0.0142193,28.6906,305.1994,4.7419,356.0763,0,U,10468,999,1729,0.0003971,0.00766898,0.0,6934.615,95.783,655.085,457.875,DEBRIS,MEDIUM,US,1977-07-14,AFETR,1980-09-15,34144,11549197,0 DELTA 1 DEB,1 10468U 77065 EA 80238.30063194  .00766898 +00000-0 +03971-2 0  9997,2 10468 028.6906 305.1994 0142193 004.7419 356.0763 15.03382874017298
3.0,GENERATED VIA SPACE-TRACK.ORG API,2004-08-15T23:35:38,18 SPCS,COSMOS 57 DEB,1965-012DL,EARTH,TEME,UTC,SGP4,1965-02-28T02:42:16.041887,15.75468347,0.0156715,65.2789,279.7396,108.0382,253.6874,0,U,1209,999,93,0.0,0.00110945,2.2162e-05,6721.44,91.401,448.64,237.97,DEBRIS,,,,,1965-03-11,33911,8699977,0 COSMOS 57 DEB,1 01209U 65012 DL 65059.11268567  .00110945 +22162-4 +00000-0 0  9994,2 01209 065.2789 279.7396 0156715 108.0382 253.6874 15.75468347000938
3.0,GENERATED VIA SPACE-TRACK.ORG API,2004-08-15T23:41:50,18 SPCS,COSMOS 989,1978-017A,EARTH,TEME,UTC,SGP4,1978-02-26T23:24:07.687008,16.19458008,0.0087743,65.0423,276.1734,63.9123,297.3455,0,U,10672,999,203,0.0,0.00520112,0.0,6599.165,88.918,278.933,163.127,PAYLOAD,,,,,1978-02-28,34035,10506096,0 COSMOS 989,1 10672U 78017  A 78057.97508897  .00520112 +00000-0 +00000-0 0  9990,2 10672 065.0423 276.1734 0087743 063.9123 297.3455 16.19458008002033
3.0,GENERATED VIA SPACE-TRACK.ORG API,2004-08-17T15:27:06,18 SPCS,THORAD AGENA D DEB,1970-025HF,EARTH,TEME,UTC,SGP4,2000-06-08T09:52:01.578432,15.74252963,0.0028626,99.7721,124.6384,174.8769,185.4607,0,U,4985,999,52942,0.036722,0.0657492,0.0,6724.899,91.471,366.014,327.513,DEBRIS,SMALL,US,1970-04-08,AFWTR,2000-06-09,35591,33669395,0 THORAD AGENA D DEB,1 04985U 70025HF  00160.41112938 +.06574920 +00000-0 +36722-1 0  9990,2 04985 099.7721 124.6384 0028626 174.8769 185.4607 15.74252963529424
3.0,GENERATED VIA SPACE-TRACK.ORG API,2019-05-27T19:30:11,18 SPCS,DELTA 1 R/B,1970-055B,EARTH,TEME,UTC,SGP4,2019-05-27T19:06:20.478240,16.37300443,0.0070109,27.835,22.6813,34.1259,29.5192,0,U,4486,999,67887,0.00030143,0.17004613,-8.1178e-06,6551.13,87.949,218.924,127.066,ROCKET BODY,LARGE,US,1970-07-23,AFETR,2019-05-27,2483650,132082291,0 DELTA 1 R/B,1  4486U 70055B   19147.79607035  .17004613 -81178-5  30143-3 0  9995,2  4486  27.8350  22.6813 0070109  34.1259  29.5192 16.37300443678877
